     2.100          NAVIGATION                              RINEX VERSION / TYPE
fic2rin                                 03/30/2016 00:23:18 PGM / RUN BY / DATE
                                                            END OF HEADER
17 16  3 29  1 59 44.0 -.202564988285D-03 -.341060513165D-12  .000000000000D+00
     .360000000000D+02 -.364375000000D+02  .413231498465D-08  .305529799365D+01
    -.178813934326D-05  .109875131166D-01  .922195613384D-05  .515366598129D+04
     .179984000000D+06  .128522515297D-06 -.216468040123D+01 -.188127160072D-06
     .975664857226D+00  .205500000000D+03 -.193464196654D+01 -.763603235711D-08
     .131434046184D-09  .100000000000D+01  .189000000000D+04  .000000000000D+00
     .240000000000D+01  .000000000000D+00 -.107102096081D-07  .360000000000D+02
     .173766000000D+06  .400000000000D+01
 4 16  3 29  1 59 44.0 -.253408215940D-03 -.795807864051D-12  .000000000000D+00
     .000000000000D+00 -.698750000000D+02  .541986861643D-08 -.214810288127D+01
    -.376999378204D-05  .833582552150D-02  .569783151150D-05  .515362820625D+04
     .179984000000D+06  .106170773506D-06  .304906397014D+01 -.111758708954D-07
     .983614823666D+00  .278062500000D+03  .864182198989D+00 -.794604527039D-08
    -.725030200418D-10  .100000000000D+01  .189000000000D+04  .000000000000D+00
     .240000000000D+01  .630000000000D+02 -.190921127796D-07  .000000000000D+00
     .173886000000D+06  .400000000000D+01
11 16  3 29  1 59 44.0 -.638591591269D-03 -.159161572810D-11  .000000000000D+00
     .000000000000D+00  .456250000000D+01  .634490714799D-08  .339433966719D+00
     .443309545517D-06  .162321891403D-01  .774115324020D-05  .515365471268D+04
     .179984000000D+06 -.175088644028D-06 -.152910399394D+01 -.372529029846D-08
     .895721606812D+00  .199093750000D+03  .151138449233D+01 -.920895501851D-08
     .237509893240D-09  .100000000000D+01  .189000000000D+04  .000000000000D+00
     .240000000000D+01  .000000000000D+00 -.121071934700D-07  .000000000000D+00
     .177186000000D+06  .400000000000D+01
12 16  3 29  1 59 44.0  .374245923012D-03  .147792889038D-11  .000000000000D+00
     .240000000000D+02 -.593437500000D+02  .408695595241D-08 -.248480218450D+00
    -.301189720631D-05  .603199272882D-02  .619143247604D-05  .515376048279D+04
     .179984000000D+06  .111758708954D-07  .307789059973D+01  .502914190292D-07
     .990582061719D+00  .279718750000D+03  .699938222574D+00 -.796961768085D-08
    -.146077513286D-09  .100000000000D+01  .189000000000D+04  .000000000000D+00
     .240000000000D+01  .000000000000D+00 -.121071934700D-07  .240000000000D+02
     .177726000000D+06  .400000000000D+01
 3 16  3 29  1 59 44.0 -.414294190705D-04 -.432009983342D-11  .000000000000D+00
     .170000000000D+02 -.214687500000D+02  .467198032102D-08  .300126846740D+01
    -.123307108879D-05  .234501436353D-03  .779516994953D-05  .515373482513D+04
     .179984000000D+06  .130385160446D-07 -.114897327009D+00 -.260770320892D-07
     .959665210388D+00  .227437500000D+03 -.270367563865D+01 -.809676583423D-08
    -.362872257943D-09  .100000000000D+01  .189000000000D+04  .000000000000D+00
     .240000000000D+01  .000000000000D+00  .186264514923D-08  .170000000000D+02
     .177816000000D+06  .400000000000D+01
 3 16  3 29  3 59 44.0 -.414601527154D-04 -.432009983342D-11  .000000000000D+00
     .180000000000D+02 -.214062500000D+02  .467519474063D-08 -.223151910798D+01
    -.113062560558D-05  .234515173361D-03  .779703259468D-05  .515373483658D+04
     .187184000000D+06  .558793544769D-08 -.114955293675D+00  .260770320892D-07
     .959662631263D+00  .226531250000D+03 -.270392871908D+01 -.806140721854D-08
    -.381444460121D-09  .100000000000D+01  .189000000000D+04  .000000000000D+00
     .240000000000D+01  .000000000000D+00  .186264514923D-08  .180000000000D+02
     .180006000000D+06  .400000000000D+01
11 16  3 29  3 59 44.0 -.638602767140D-03 -.159161572810D-11  .000000000000D+00
     .190000000000D+02  .406250000000D+01  .629383359200D-08  .138964979050D+01
    -.782310962677D-07  .162324607372D-01  .788457691669D-05  .515365480614D+04
     .187184000000D+06 -.189989805222D-06 -.152917070885D+01 -.366941094398D-06
     .895724681865D+00  .194437500000D+03  .151137454741D+01 -.892608609303D-08
     .376087094108D-09  .100000000000D+01  .189000000000D+04  .000000000000D+00
     .240000000000D+01  .000000000000D+00 -.121071934700D-07  .190000000000D+02
     .180006000000D+06  .400000000000D+01
12 16  3 29  3 59 44.0  .374256633222D-03  .147792889038D-11  .000000000000D+00
     .250000000000D+02 -.515000000000D+02  .397659421254D-08  .801631201260D+00
    -.290200114250D-05  .603303266689D-02  .603869557381D-05  .515376243019D+04
     .187184000000D+06  .931322574615D-08  .307783321092D+01  .502914190292D-07
     .990581008418D+00  .280000000000D+03  .699950296037D+00 -.796997483859D-08
    -.145363197818D-09  .100000000000D+01  .189000000000D+04  .000000000000D+00
     .240000000000D+01  .000000000000D+00 -.121071934700D-07  .250000000000D+02
     .180006000000D+06  .400000000000D+01
17 16  3 29  3 59 44.0 -.202567316592D-03 -.341060513165D-12  .000000000000D+00
     .370000000000D+02 -.409062500000D+02  .412410035676D-08 -.217764252982D+01
    -.199303030968D-05  .109865709674D-01  .970624387264D-05  .515366810989D+04
     .187184000000D+06  .158324837685D-06 -.216473628762D+01  .409781932831D-07
     .975666519101D+00  .197781250000D+03 -.193470377776D+01 -.764174688086D-08
     .300726812193D-09  .100000000000D+01  .189000000000D+04  .000000000000D+00
     .240000000000D+01  .000000000000D+00 -.107102096081D-07  .370000000000D+02
     .180006000000D+06  .400000000000D+01
 1 16  3 29  4  0  0.0  .157137401402D-04  .113686837722D-11  .000000000000D+00
     .100000000000D+03  .396875000000D+01  .478769942690D-08  .199888878915D+01
     .236555933952D-06  .520230352413D-02  .680051743984D-05  .515364575577D+04
     .187200000000D+06 -.128522515297D-06 -.115623084618D+01  .894069671631D-07
     .963744011784D+00  .250906250000D+03  .451825964594D+00 -.813105297671D-08
     .227866634417D-09  .100000000000D+01  .189000000000D+04  .000000000000D+00
     .240000000000D+01  .000000000000D+00  .512227416039D-08  .100000000000D+03
     .180006000000D+06  .400000000000D+01
 2 16  3 29  4  0  0.0  .598612241447D-03 -.454747350886D-12  .000000000000D+00
     .820000000000D+02 -.134375000000D+01  .506021077809D-08  .241148228691D+01
    -.357627868652D-06  .156033507083D-01  .666826963425D-05  .515374625587D+04
     .187200000000D+06  .558793544769D-08 -.120047316229D+01 -.301748514175D-06
     .942478563524D+00  .238156250000D+03 -.214036021032D+01 -.808212236712D-08
     .150720563831D-09  .100000000000D+01  .189000000000D+04  .000000000000D+00
     .240000000000D+01  .000000000000D+00 -.204890966415D-07  .820000000000D+02
     .180006000000D+06  .400000000000D+01
 5 16  3 29  4  0  0.0 -.133587978780D-03  .329691829393D-11  .000000000000D+00
     .440000000000D+02 -.210000000000D+02  .492199073496D-08 -.138230633088D+01
    -.110082328320D-05  .457847502548D-02  .748597085476D-05  .515375551796D+04
     .187200000000D+06  .726431608200D-07 -.126056928400D+00 -.875443220139D-07
     .946750660285D+00  .228875000000D+03  .468555472965D+00 -.819069831832D-08
    -.345728686702D-09  .100000000000D+01  .189000000000D+04  .000000000000D+00
     .240000000000D+01  .000000000000D+00 -.107102096081D-07  .440000000000D+02
     .180006000000D+06  .400000000000D+01
 6 16  3 29  4  0  0.0  .167519785464D-03  .579802872380D-11  .000000000000D+00
     .380000000000D+02 -.306250000000D+01  .474519765653D-08  .257238974364D+01
    -.372529029846D-07  .416695955209D-03  .666640698910D-05  .515365845680D+04
     .187200000000D+06  .558793544769D-08 -.116467516921D+01 -.875443220139D-07
     .963580138626D+00  .248343750000D+03 -.167021325072D+01 -.812640992616D-08
     .126790995640D-09  .100000000000D+01  .189000000000D+04  .000000000000D+00
     .240000000000D+01  .000000000000D+00  .419095158577D-08  .380000000000D+02
     .180006000000D+06  .400000000000D+01
 7 16  3 29  4  0  0.0  .462927855551D-03 -.193267624127D-11  .000000000000D+00
     .750000000000D+02  .607187500000D+02  .449911597767D-08  .127236236110D+01
     .316277146339D-05  .917400442995D-02  .482238829136D-05  .515366487694D+04
     .187200000000D+06 -.745058059692D-07  .200311054397D+01  .745058059692D-07
     .966757201706D+00  .289187500000D+03 -.268211726884D+01 -.832356099544D-08
     .903609067516D-10  .100000000000D+01  .189000000000D+04  .000000000000D+00
     .485000000000D+01  .000000000000D+00 -.111758708954D-07  .750000000000D+02
     .180006000000D+06  .400000000000D+01
 8 16  3 29  4  0  0.0 -.292626209557D-04 -.136424205266D-11  .000000000000D+00
     .400000000000D+02 -.405937500000D+02  .447125767440D-08 -.114402484436D+01
    -.214017927647D-05  .183041428681D-02  .104159116745D-04  .515367154694D+04
     .187200000000D+06 -.502914190292D-07 -.221651769061D+01 -.149011611938D-07
     .962553464181D+00  .181906250000D+03 -.124285009253D+01 -.797747515100D-08
     .201436962087D-09  .100000000000D+01  .189000000000D+04  .000000000000D+00
     .240000000000D+01  .000000000000D+00  .465661287308D-08  .400000000000D+02
     .180006000000D+06  .400000000000D+01
 9 16  3 29  4  0  0.0  .991518609226D-04  .750333128963D-11  .000000000000D+00
     .650000000000D+02  .573750000000D+02  .443804200512D-08 -.229723626859D+01
     .291131436825D-05  .642101396807D-03  .104308128357D-04  .515361629868D+04
     .187200000000D+06  .242143869400D-07  .924752603132D+00 -.204890966415D-07
     .955489990988D+00  .175406250000D+03  .202339321411D+01 -.797711799327D-08
    -.144648882349D-09  .100000000000D+01  .189000000000D+04  .000000000000D+00
     .240000000000D+01  .000000000000D+00  .139698386192D-08  .650000000000D+02
     .180006000000D+06  .400000000000D+01
